start=new Date('2023-01-22T00:00:00.000Z').valueOf();
sats=[{"INCLINATION":"53.0528","RCS_SIZE":"LARGE","MEAN_MOTION_DOT":"0.00002433","DECAY_DATE":null,"TLE_LINE1":"1 46066U 20055AR  23021.48232002  .00002433  00000-0  18222-3 0  9993","RA_OF_ASC_NODE":"188.6823","TIME_SYSTEM":"UTC","PERIAPSIS":"546.333","MEAN_MOTION_DDOT":"0.0000000000000","OBJECT_NAME":"STARLINK-1525","BSTAR":"0.00018222000000","MEAN_MOTION":"15.06392310","NORAD_CAT_ID":"46066","ELEMENT_SET_NO":"999","ARG_OF_PERICENTER":"77.0126","PERIOD":"95.593","EPOCH":"2023-01-21T11:34:32.449728","SITE":"AFETR","REV_AT_EPOCH":"13646","COUNTRY_CODE":"US","GP_ID":"223571661","OBJECT_TYPE":"PAYLOAD","APOAPSIS":"548.142","REF_FRAME":"TEME","LAUNCH_DATE":"2020-08-07","MEAN_ELEMENT_THEORY":"SGP4","CENTER_NAME":"EARTH","EPHEMERIS_TYPE":"0","SEMIMAJOR_AXIS":"6925.372","TLE_LINE2":"2 46066  53.0528 188.6823 0001306  77.0126 283.1009 15.06392310136469","OBJECT_ID":"2020-055AR","MEAN_ANOMALY":"283.1009","CLASSIFICATION_TYPE":"U","ECCENTRICITY":"0.00013060","FILE":"3756921"},{"OBJECT_TYPE":"PAYLOAD","REF_FRAME":"TEME","LAUNCH_DATE":"2020-08-07","APOAPSIS":"548.128","CENTER_NAME":"EARTH","EPHEMERIS_TYPE":"0","MEAN_ELEMENT_THEORY":"SGP4","COUNTRY_CODE":"US","GP_ID":"223577335","ECCENTRICITY":"0.00013020","FILE":"3757142","SEMIMAJOR_AXIS":"6925.361","OBJECT_ID":"2020-055AS","MEAN_ANOMALY":"273.0028","TLE_LINE2":"2 46067  53.0538 187.7660 0001302  87.1110 273.0028 15.06395817136498","CLASSIFICATION_TYPE":"U","PERIAPSIS":"546.325","TIME_SYSTEM":"UTC","RA_OF_ASC_NODE":"187.7660","OBJECT_NAME":"STARLINK-1529","MEAN_MOTION_DDOT":"0.0000000000000","BSTAR":"0.00007082200000","MEAN_MOTION":"15.06395817","RCS_SIZE":"LARGE","INCLINATION":"53.0538","DECAY_DATE":null,"MEAN_MOTION_DOT":"0.00000774","TLE_LINE1":"1 46067U 20055AS  23021.68409853  .00000774  00000-0  70822-4 0  9997","EPOCH":"2023-01-21T16:25:06.112992","REV_AT_EPOCH":"13649","SITE":"AFETR","ELEMENT_SET_NO":"999","NORAD_CAT_ID":"46067","ARG_OF_PERICENTER":"87.1110","PERIOD":"95.592"},{"EPOCH":"2023-01-21T11:54:24.385248","SITE":"AFETR","REV_AT_EPOCH":"13646","NORAD_CAT_ID":"46068","ELEMENT_SET_NO":"999","ARG_OF_PERICENTER":"90.6613","PERIOD":"95.593","TIME_SYSTEM":"UTC","RA_OF_ASC_NODE":"188.6084","PERIAPSIS":"546.468","MEAN_MOTION_DDOT":"0.0000000000000","OBJECT_NAME":"STARLINK-1532","BSTAR":"0.00002749100000","MEAN_MOTION":"15.06392740","INCLINATION":"53.0535","RCS_SIZE":"LARGE","MEAN_MOTION_DOT":"0.00000128","DECAY_DATE":null,"TLE_LINE1":"1 46068U 20055AT  23021.49611557  .00000128  00000-0  27491-4 0  9990","ECCENTRICITY":"0.00011080","FILE":"3756922","SEMIMAJOR_AXIS":"6925.371","TLE_LINE2":"2 46068  53.0535 188.6084 0001108  90.6613 269.4503 15.06392740136463","MEAN_ANOMALY":"269.4503","OBJECT_ID":"2020-055AT","CLASSIFICATION_TYPE":"U","OBJECT_TYPE":"PAYLOAD","APOAPSIS":"548.003","LAUNCH_DATE":"2020-08-07","REF_FRAME":"TEME","MEAN_ELEMENT_THEORY":"SGP4","CENTER_NAME":"EARTH","EPHEMERIS_TYPE":"0","GP_ID":"223571694","COUNTRY_CODE":"US"},{"REV_AT_EPOCH":"13646","SITE":"AFETR","EPOCH":"2023-01-21T10:41:28.011840","PERIOD":"95.593","ARG_OF_PERICENTER":"91.3900","ELEMENT_SET_NO":"999","NORAD_CAT_ID":"46069","BSTAR":"0.00008469300000","MEAN_MOTION":"15.06392282","OBJECT_NAME":"STARLINK-1533","MEAN_MOTION_DDOT":"0.0000000000000","PERIAPSIS":"546.233","TIME_SYSTEM":"UTC","RA_OF_ASC_NODE":"188.8512","TLE_LINE1":"1 46069U 20055AU  23021.44546310  .00000980  00000-0  84693-4 0  9993","DECAY_DATE":null,"MEAN_MOTION_DOT":"0.00000980","RCS_SIZE":"LARGE","INCLINATION":"53.0542","FILE":"3756923","ECCENTRICITY":"0.00014500","CLASSIFICATION_TYPE":"U","MEAN_ANOMALY":"268.7255","OBJECT_ID":"2020-055AU","TLE_LINE2":"2 46069  53.0542 188.8512 0001450  91.3900 268.7255 15.06392282136464","SEMIMAJOR_AXIS":"6925.372","CENTER_NAME":"EARTH","EPHEMERIS_TYPE":"0","MEAN_ELEMENT_THEORY":"SGP4","LAUNCH_DATE":"2020-08-07","REF_FRAME":"TEME","APOAPSIS":"548.241","OBJECT_TYPE":"PAYLOAD","GP_ID":"223572107","COUNTRY_CODE":"US"},{"EPOCH":"2023-01-21T11:02:41.253216","SITE":"AFETR","REV_AT_EPOCH":"13646","ARG_OF_PERICENTER":"84.8832","PERIOD":"95.592","ELEMENT_SET_NO":"999","NORAD_CAT_ID":"46070","BSTAR":"0.00008217300000","MEAN_MOTION":"15.06397438","RA_OF_ASC_NODE":"188.7888","TIME_SYSTEM":"UTC","PERIAPSIS":"546.367","MEAN_MOTION_DDOT":"0.0000000000000","OBJECT_NAME":"STARLINK-1536","TLE_LINE1":"1 46070U 20055AV  23021.46019969  .00000943  00000-0  82173-4 0  9992","INCLINATION":"53.0546","RCS_SIZE":"LARGE","MEAN_MOTION_DOT":"0.00000943","DECAY_DATE":null,"FILE":"3756924","ECCENTRICITY":"0.00012340","CLASSIFICATION_TYPE":"U","SEMIMAJOR_AXIS":"6925.356","TLE_LINE2":"2 46070  53.0546 188.7888 0001234  84.8832 275.2298 15.06397438136464","OBJECT_ID":"2020-055AV","MEAN_ANOMALY":"275.2298","APOAPSIS":"548.076","REF_FRAME":"TEME","LAUNCH_DATE":"2020-08-07","MEAN_ELEMENT_THEORY":"SGP4","EPHEMERIS_TYPE":"0","CENTER_NAME":"EARTH","OBJECT_TYPE":"PAYLOAD","GP_ID":"223571717","COUNTRY_CODE":"US"},{"ELEMENT_SET_NO":"999","NORAD_CAT_ID":"46071","PERIOD":"95.592","ARG_OF_PERICENTER":"88.5683","REV_AT_EPOCH":"13650","SITE":"AFETR","EPOCH":"2023-01-21T17:51:23.245920","DECAY_DATE":null,"MEAN_MOTION_DOT":"0.00001737","RCS_SIZE":"LARGE","INCLINATION":"53.0542","TLE_LINE1":"1 46071U 20055AW  23021.74401905  .00001737  00000-0  13550-3 0  9993","OBJECT_NAME":"STARLINK-1538","MEAN_MOTION_DDOT":"0.0000000000000","PERIAPSIS":"546.350","RA_OF_ASC_NODE":"187.5089","TIME_SYSTEM":"UTC","BSTAR":"0.00013550000000","MEAN_MOTION":"15.06398611","MEAN_ANOMALY":"271.5449","OBJECT_ID":"2020-055AW","TLE_LINE2":"2 46071  53.0542 187.5089 0001253  88.5683 271.5449 15.06398611136503","SEMIMAJOR_AXIS":"6925.353","CLASSIFICATION_TYPE":"U","ECCENTRICITY":"0.00012530","FILE":"3757147","GP_ID":"223577396","COUNTRY_CODE":"US","OBJECT_TYPE":"PAYLOAD","CENTER_NAME":"EARTH","EPHEMERIS_TYPE":"0","MEAN_ELEMENT_THEORY":"SGP4","LAUNCH_DATE":"2020-08-07","REF_FRAME":"TEME","APOAPSIS":"548.086"},{"ECCENTRICITY":"0.00012880","FILE":"3757153","SEMIMAJOR_AXIS":"6925.357","MEAN_ANOMALY":"277.4985","OBJECT_ID":"2020-055AX","TLE_LINE2":"2 46072  53.0540 187.6922 0001288  82.6150 277.4985 15.06397115136497","CLASSIFICATION_TYPE":"U","OBJECT_TYPE":"PAYLOAD","LAUNCH_DATE":"2020-08-07","REF_FRAME":"TEME","APOAPSIS":"548.114","EPHEMERIS_TYPE":"0","CENTER_NAME":"EARTH","MEAN_ELEMENT_THEORY":"SGP4","COUNTRY_CODE":"US","GP_ID":"223577611","EPOCH":"2023-01-21T16:51:38.809728","REV_AT_EPOCH":"13649","SITE":"AFETR","ELEMENT_SET_NO":"999","NORAD_CAT_ID":"46072","ARG_OF_PERICENTER":"82.6150","PERIOD":"95.592","PERIAPSIS":"546.330","RA_OF_ASC_NODE":"187.6922","TIME_SYSTEM":"UTC","OBJECT_NAME":"STARLINK-1539","MEAN_MOTION_DDOT":"0.0000000000000","BSTAR":"0.00000900680000","MEAN_MOTION":"15.06397115","RCS_SIZE":"LARGE","INCLINATION":"53.0540","DECAY_DATE":null,"MEAN_MOTION_DOT":"-0.00000147","TLE_LINE1":"1 46072U 20055AX  23021.70253252 -.00000147  00000-0  90068-5 0  9996"},{"ARG_OF_PERICENTER":"98.0006","PERIOD":"95.591","NORAD_CAT_ID":"46073","ELEMENT_SET_NO":"999","EPOCH":"2023-01-21T17:14:13.638624","REV_AT_EPOCH":"13650","SITE":"AFETR","TLE_LINE1":"1 46073U 20055AY  23021.71821341  .00008105  00000-0  56225-3 0  9994","RCS_SIZE":"LARGE","INCLINATION":"53.0526","DECAY_DATE":null,"MEAN_MOTION_DOT":"0.00008105","BSTAR":"0.00056225000000","MEAN_MOTION":"15.06410736","PERIAPSIS":"546.299","TIME_SYSTEM":"UTC","RA_OF_ASC_NODE":"187.6126","OBJECT_NAME":"STARLINK-1542","MEAN_MOTION_DDOT":"0.0000000000000","CLASSIFICATION_TYPE":"U","SEMIMAJOR_AXIS":"6925.316","MEAN_ANOMALY":"262.1128","OBJECT_ID":"2020-055AY","TLE_LINE2":"2 46073  53.0526 187.6126 0001273  98.0006 262.1128 15.06410736136500","FILE":"3757132","ECCENTRICITY":"0.00012730","GP_ID":"223577066","COUNTRY_CODE":"US","LAUNCH_DATE":"2020-08-07","REF_FRAME":"TEME","APOAPSIS":"548.062","CENTER_NAME":"EARTH","EPHEMERIS_TYPE":"0","MEAN_ELEMENT_THEORY":"SGP4","OBJECT_TYPE":"PAYLOAD"},{"EPHEMERIS_TYPE":"0","CENTER_NAME":"EARTH","MEAN_ELEMENT_THEORY":"SGP4","REF_FRAME":"TEME","LAUNCH_DATE":"2020-08-07","APOAPSIS":"548.001","OBJECT_TYPE":"PAYLOAD","GP_ID":"223577460","COUNTRY_CODE":"US","FILE":"3757151","ECCENTRICITY":"0.00011100","CLASSIFICATION_TYPE":"U","OBJECT_ID":"2020-055AZ","MEAN_ANOMALY":"263.5823","TLE_LINE2":"2 46074  53.0547 187.6827 0001110  96.5292 263.5823 15.06393946136502","SEMIMAJOR_AXIS":"6925.367","BSTAR":"0.00011765000000","MEAN_MOTION":"15.06393946","OBJECT_NAME":"STARLINK-1549","MEAN_MOTION_DDOT":"0.0000000000000","PERIAPSIS":"546.463","TIME_SYSTEM":"UTC","RA_OF_ASC_NODE":"187.6827","TLE_LINE1":"1 46074U 20055AZ  23021.70347491  .00001471  00000-0  11765-3 0  9992","DECAY_DATE":null,"MEAN_MOTION_DOT":"0.00001471","RCS_SIZE":"LARGE","INCLINATION":"53.0547","REV_AT_EPOCH":"13650","SITE":"AFETR","EPOCH":"2023-01-21T16:53:00.232224","PERIOD":"95.593","ARG_OF_PERICENTER":"96.5292","NORAD_CAT_ID":"46074","ELEMENT_SET_NO":"999"},{"NORAD_CAT_ID":"46075","ELEMENT_SET_NO":"999","ARG_OF_PERICENTER":"95.6785","PERIOD":"95.592","EPOCH":"2023-01-20T17:37:03.578880","REV_AT_EPOCH":"13635","SITE":"AFETR","RCS_SIZE":"LARGE","INCLINATION":"53.0547","DECAY_DATE":null,"MEAN_MOTION_DOT":"0.00001198","TLE_LINE1":"1 46075U 20055BA  23020.73406920  .00001198  00000-0  99330-4 0  9999","PERIAPSIS":"546.309","RA_OF_ASC_NODE":"192.0426","TIME_SYSTEM":"UTC","OBJECT_NAME":"STARLINK-1551","MEAN_MOTION_DDOT":"0.0000000000000","BSTAR":"0.00009933000000","MEAN_MOTION":"15.06401976","SEMIMAJOR_AXIS":"6925.343","OBJECT_ID":"2020-055BA","MEAN_ANOMALY":"264.4352","TLE_LINE2":"2 46075  53.0547 192.0426 0001298  95.6785 264.4352 15.06401976136355","CLASSIFICATION_TYPE":"U","ECCENTRICITY":"0.00012980","FILE":"3756090","GP_ID":"223553066","COUNTRY_CODE":"US","OBJECT_TYPE":"PAYLOAD","REF_FRAME":"TEME","LAUNCH_DATE":"2020-08-07","APOAPSIS":"548.106","EPHEMERIS_TYPE":"0","CENTER_NAME":"EARTH","MEAN_ELEMENT_THEORY":"SGP4"}];
